start=new Date('2023-05-21T00:00:00.000Z').valueOf();
sats=[{"BSTAR":"0.00006746700000","TLE_LINE1":"1 53966U 22125C   23140.70160471  .00000786  00000-0  67467-4 0  9992","MEAN_MOTION_DDOT":"0.0000000000000","MEAN_ELEMENT_THEORY":"SGP4","CLASSIFICATION_TYPE":"U","EPOCH":"2023-05-20T16:50:18.646944","TLE_LINE2":"2 53966  53.2152 141.0555 0001090  84.7080 275.4036 15.08840087 34732","EPHEMERIS_TYPE":"0","OBJECT_ID":"2022-125C","PERIOD":"95.438","LAUNCH_DATE":"2022-10-05","APOAPSIS":"540.499","NORAD_CAT_ID":"53966","COUNTRY_CODE":"US","TIME_SYSTEM":"UTC","RA_OF_ASC_NODE":"141.0555","REF_FRAME":"TEME","REV_AT_EPOCH":"3473","SEMIMAJOR_AXIS":"6917.880","MEAN_ANOMALY":"275.4036","PERIAPSIS":"538.991","OBJECT_TYPE":"PAYLOAD","ARG_OF_PERICENTER":"84.7080","MEAN_MOTION_DOT":"0.00000786","RCS_SIZE":"LARGE","CENTER_NAME":"EARTH","DECAY_DATE":null,"ECCENTRICITY":"0.00010900","INCLINATION":"53.2152","FILE":"3913175","SITE":"AFWTR","MEAN_MOTION":"15.08840087","GP_ID":"232211056","OBJECT_NAME":"STARLINK-4635","ELEMENT_SET_NO":"999"},{"MEAN_ANOMALY":"278.8640","SEMIMAJOR_AXIS":"6917.875","REV_AT_EPOCH":"3473","REF_FRAME":"TEME","RA_OF_ASC_NODE":"141.0324","TIME_SYSTEM":"UTC","COUNTRY_CODE":"US","NORAD_CAT_ID":"53967","APOAPSIS":"540.568","LAUNCH_DATE":"2022-10-05","PERIOD":"95.437","OBJECT_ID":"2022-125D","EPHEMERIS_TYPE":"0","TLE_LINE2":"2 53967  53.2156 141.0324 0001197  81.2488 278.8640 15.08841660 34739","EPOCH":"2023-05-20T16:45:00.209376","CLASSIFICATION_TYPE":"U","MEAN_ELEMENT_THEORY":"SGP4","MEAN_MOTION_DDOT":"0.0000000000000","TLE_LINE1":"1 53967U 22125D   23140.69791909  .00000878  00000-0  73223-4 0  9996","BSTAR":"0.00007322300000","ELEMENT_SET_NO":"999","OBJECT_NAME":"STARLINK-4634","GP_ID":"232211306","MEAN_MOTION":"15.08841660","SITE":"AFWTR","FILE":"3913175","ECCENTRICITY":"0.00011970","INCLINATION":"53.2156","DECAY_DATE":null,"RCS_SIZE":"LARGE","CENTER_NAME":"EARTH","MEAN_MOTION_DOT":"0.00000878","ARG_OF_PERICENTER":"81.2488","OBJECT_TYPE":"PAYLOAD","PERIAPSIS":"538.912"},{"MEAN_MOTION":"15.08834388","GP_ID":"232210799","SITE":"AFWTR","FILE":"3913175","ECCENTRICITY":"0.00011770","INCLINATION":"53.2153","DECAY_DATE":null,"CENTER_NAME":"EARTH","RCS_SIZE":"LARGE","ELEMENT_SET_NO":"999","OBJECT_NAME":"STARLINK-4629","OBJECT_TYPE":"PAYLOAD","PERIAPSIS":"538.948","MEAN_MOTION_DOT":"0.00001184","ARG_OF_PERICENTER":"85.8594","COUNTRY_CODE":"US","APOAPSIS":"540.577","NORAD_CAT_ID":"53968","LAUNCH_DATE":"2022-10-05","MEAN_ANOMALY":"274.2532","SEMIMAJOR_AXIS":"6917.898","REV_AT_EPOCH":"3467","REF_FRAME":"TEME","RA_OF_ASC_NODE":"142.7501","TIME_SYSTEM":"UTC","CLASSIFICATION_TYPE":"U","MEAN_ELEMENT_THEORY":"SGP4","TLE_LINE1":"1 53968U 22125E   23140.28943676  .00001184  00000-0  92457-4 0  9993","MEAN_MOTION_DDOT":"0.0000000000000","BSTAR":"0.00009245700000","OBJECT_ID":"2022-125E","PERIOD":"95.438","EPHEMERIS_TYPE":"0","TLE_LINE2":"2 53968  53.2153 142.7501 0001177  85.8594 274.2532 15.08834388 34670","EPOCH":"2023-05-20T06:56:47.336064"},{"OBJECT_NAME":"STARLINK-4468","ELEMENT_SET_NO":"999","DECAY_DATE":null,"RCS_SIZE":"LARGE","CENTER_NAME":"EARTH","ECCENTRICITY":"0.00012680","INCLINATION":"53.2154","SITE":"AFWTR","FILE":"3913175","MEAN_MOTION":"15.08841724","GP_ID":"232211549","ARG_OF_PERICENTER":"85.2083","MEAN_MOTION_DOT":"0.00001012","OBJECT_TYPE":"PAYLOAD","PERIAPSIS":"538.863","RA_OF_ASC_NODE":"141.0120","TIME_SYSTEM":"UTC","REF_FRAME":"TEME","MEAN_ANOMALY":"274.9054","REV_AT_EPOCH":"3473","SEMIMAJOR_AXIS":"6917.875","LAUNCH_DATE":"2022-10-05","COUNTRY_CODE":"US","APOAPSIS":"540.617","NORAD_CAT_ID":"53969","EPOCH":"2023-05-20T16:39:41.878944","TLE_LINE2":"2 53969  53.2154 141.0120 0001268  85.2083 274.9054 15.08841724 34734","EPHEMERIS_TYPE":"0","OBJECT_ID":"2022-125F","PERIOD":"95.437","TLE_LINE1":"1 53969U 22125F   23140.69423471  .00001012  00000-0  81628-4 0  9993","MEAN_MOTION_DDOT":"0.0000000000000","BSTAR":"0.00008162800000","MEAN_ELEMENT_THEORY":"SGP4","CLASSIFICATION_TYPE":"U"},{"MEAN_MOTION_DOT":"0.00000936","ARG_OF_PERICENTER":"88.9388","OBJECT_TYPE":"PAYLOAD","PERIAPSIS":"533.939","ELEMENT_SET_NO":"999","OBJECT_NAME":"STARLINK-4567","FILE":"3913175","SITE":"AFWTR","MEAN_MOTION":"15.10477083","GP_ID":"232211556","RCS_SIZE":"LARGE","CENTER_NAME":"EARTH","DECAY_DATE":null,"INCLINATION":"53.2163","ECCENTRICITY":"0.00011670","EPHEMERIS_TYPE":"0","PERIOD":"95.334","OBJECT_ID":"2022-125G","EPOCH":"2023-05-20T07:19:30.252000","TLE_LINE2":"2 53970  53.2163 137.8661 0001167  88.9388 271.1739 15.10477083 34741","MEAN_ELEMENT_THEORY":"SGP4","CLASSIFICATION_TYPE":"U","MEAN_MOTION_DDOT":"0.0000000000000","TLE_LINE1":"1 53970U 22125G   23140.30521125  .00000936  00000-0  73804-4 0  9999","BSTAR":"0.00007380400000","REF_FRAME":"TEME","REV_AT_EPOCH":"3474","SEMIMAJOR_AXIS":"6912.881","MEAN_ANOMALY":"271.1739","TIME_SYSTEM":"UTC","RA_OF_ASC_NODE":"137.8661","LAUNCH_DATE":"2022-10-05","NORAD_CAT_ID":"53970","APOAPSIS":"535.553","COUNTRY_CODE":"US"},{"ECCENTRICITY":"0.00010910","INCLINATION":"53.2158","CENTER_NAME":"EARTH","RCS_SIZE":"LARGE","DECAY_DATE":null,"GP_ID":"232211806","MEAN_MOTION":"15.08841009","FILE":"3913175","SITE":"AFWTR","OBJECT_NAME":"STARLINK-4639","ELEMENT_SET_NO":"999","OBJECT_TYPE":"PAYLOAD","PERIAPSIS":"538.988","ARG_OF_PERICENTER":"86.7010","MEAN_MOTION_DOT":"0.00000284","APOAPSIS":"540.497","NORAD_CAT_ID":"53971","COUNTRY_CODE":"US","LAUNCH_DATE":"2022-10-05","TIME_SYSTEM":"UTC","RA_OF_ASC_NODE":"140.9873","SEMIMAJOR_AXIS":"6917.877","REV_AT_EPOCH":"3473","MEAN_ANOMALY":"273.4107","REF_FRAME":"TEME","BSTAR":"0.00003591000000","TLE_LINE1":"1 53971U 22125H   23140.69054859  .00000284  00000-0  35910-4 0  9999","MEAN_MOTION_DDOT":"0.0000000000000","CLASSIFICATION_TYPE":"U","MEAN_ELEMENT_THEORY":"SGP4","TLE_LINE2":"2 53971  53.2158 140.9873 0001091  86.7010 273.4107 15.08841009 34733","EPOCH":"2023-05-20T16:34:23.398176","OBJECT_ID":"2022-125H","PERIOD":"95.437","EPHEMERIS_TYPE":"0"},{"ELEMENT_SET_NO":"999","OBJECT_NAME":"STARLINK-5157","MEAN_MOTION":"15.08840245","GP_ID":"232210300","SITE":"AFWTR","FILE":"3913175","ECCENTRICITY":"0.00011770","INCLINATION":"53.2162","DECAY_DATE":null,"CENTER_NAME":"EARTH","RCS_SIZE":"LARGE","MEAN_MOTION_DOT":"0.00000747","ARG_OF_PERICENTER":"80.4769","OBJECT_TYPE":"PAYLOAD","PERIAPSIS":"538.930","MEAN_ANOMALY":"279.6356","SEMIMAJOR_AXIS":"6917.880","REV_AT_EPOCH":"3480","REF_FRAME":"TEME","RA_OF_ASC_NODE":"135.9750","TIME_SYSTEM":"UTC","COUNTRY_CODE":"US","NORAD_CAT_ID":"53972","APOAPSIS":"540.559","LAUNCH_DATE":"2022-10-05","PERIOD":"95.438","OBJECT_ID":"2022-125J","EPHEMERIS_TYPE":"0","TLE_LINE2":"2 53972  53.2162 135.9750 0001177  80.4769 279.6356 15.08840245 34807","EPOCH":"2023-05-20T16:27:05.966208","CLASSIFICATION_TYPE":"U","MEAN_ELEMENT_THEORY":"SGP4","MEAN_MOTION_DDOT":"0.0000000000000","TLE_LINE1":"1 53972U 22125J   23140.68548572  .00000747  00000-0  64987-4 0  9999","BSTAR":"0.00006498700000"},{"TLE_LINE2":"2 53973  53.2152 142.1317 0001191  88.8669 271.2460 15.08843572 34690","EPOCH":"2023-05-20T10:02:14.069760","OBJECT_ID":"2022-125K","PERIOD":"95.437","EPHEMERIS_TYPE":"0","BSTAR":"0.00004201000000","TLE_LINE1":"1 53973U 22125K   23140.41821840  .00000381  00000-0  42010-4 0  9990","MEAN_MOTION_DDOT":"0.0000000000000","CLASSIFICATION_TYPE":"U","MEAN_ELEMENT_THEORY":"SGP4","TIME_SYSTEM":"UTC","RA_OF_ASC_NODE":"142.1317","REV_AT_EPOCH":"3469","SEMIMAJOR_AXIS":"6917.869","MEAN_ANOMALY":"271.2460","REF_FRAME":"TEME","APOAPSIS":"540.558","NORAD_CAT_ID":"53973","COUNTRY_CODE":"US","LAUNCH_DATE":"2022-10-05","ARG_OF_PERICENTER":"88.8669","MEAN_MOTION_DOT":"0.00000381","OBJECT_TYPE":"PAYLOAD","PERIAPSIS":"538.911","OBJECT_NAME":"STARLINK-5156","ELEMENT_SET_NO":"999","INCLINATION":"53.2152","ECCENTRICITY":"0.00011910","CENTER_NAME":"EARTH","RCS_SIZE":"LARGE","DECAY_DATE":null,"GP_ID":"232211050","MEAN_MOTION":"15.08843572","FILE":"3913175","SITE":"AFWTR"},{"ARG_OF_PERICENTER":"84.5731","MEAN_MOTION_DOT":"0.00001143","PERIAPSIS":"538.879","OBJECT_TYPE":"PAYLOAD","OBJECT_NAME":"STARLINK-5159","ELEMENT_SET_NO":"999","ECCENTRICITY":"0.00012460","INCLINATION":"53.2158","DECAY_DATE":null,"CENTER_NAME":"EARTH","RCS_SIZE":"LARGE","GP_ID":"232211057","MEAN_MOTION":"15.08841339","SITE":"AFWTR","FILE":"3913175","TLE_LINE2":"2 53974  53.2158 120.8070 0001246  84.5731 275.5403 15.08841339 35010","EPOCH":"2023-05-20T15:38:41.372736","PERIOD":"95.437","OBJECT_ID":"2022-125L","EPHEMERIS_TYPE":"0","BSTAR":"0.00008990700000","TLE_LINE1":"1 53974U 22125L   23140.65186774  .00001143  00000-0  89907-4 0  9990","MEAN_MOTION_DDOT":"0.0000000000000","CLASSIFICATION_TYPE":"U","MEAN_ELEMENT_THEORY":"SGP4","RA_OF_ASC_NODE":"120.8070","TIME_SYSTEM":"UTC","MEAN_ANOMALY":"275.5403","REV_AT_EPOCH":"3501","SEMIMAJOR_AXIS":"6917.876","REF_FRAME":"TEME","COUNTRY_CODE":"US","APOAPSIS":"540.603","NORAD_CAT_ID":"53974","LAUNCH_DATE":"2022-10-05"},{"APOAPSIS":"540.632","NORAD_CAT_ID":"53975","COUNTRY_CODE":"US","LAUNCH_DATE":"2022-10-05","SEMIMAJOR_AXIS":"6917.875","REV_AT_EPOCH":"3481","MEAN_ANOMALY":"272.8410","REF_FRAME":"TEME","TIME_SYSTEM":"UTC","RA_OF_ASC_NODE":"135.4801","CLASSIFICATION_TYPE":"U","MEAN_ELEMENT_THEORY":"SGP4","BSTAR":"0.00006540600000","TLE_LINE1":"1 53975U 22125M   23140.71856549  .00000753  00000-0  65406-4 0  9996","MEAN_MOTION_DDOT":"0.0000000000000","OBJECT_ID":"2022-125M","PERIOD":"95.437","EPHEMERIS_TYPE":"0","TLE_LINE2":"2 53975  53.2161 135.4801 0001289  87.2729 272.8410 15.08841606 34815","EPOCH":"2023-05-20T17:14:44.058336","MEAN_MOTION":"15.08841606","GP_ID":"232211307","FILE":"3913175","SITE":"AFWTR","ECCENTRICITY":"0.00012890","INCLINATION":"53.2161","CENTER_NAME":"EARTH","RCS_SIZE":"LARGE","DECAY_DATE":null,"ELEMENT_SET_NO":"999","OBJECT_NAME":"STARLINK-5137","PERIAPSIS":"538.849","OBJECT_TYPE":"PAYLOAD","MEAN_MOTION_DOT":"0.00000753","ARG_OF_PERICENTER":"87.2729"}];
